[{"OBJECT_NAME":"TIANMU-1 21","OBJECT_ID":"2023-208C","EPOCH":"2026-03-09T21:48:13.065120","MEAN_MOTION":15.33041299,"ECCENTRICITY":0.00059807,"INCLINATION":97.4378,"RA_OF_ASC_NODE":187.7048,"ARG_OF_PERICENTER":317.2488,"MEAN_ANOMALY":42.8288,"EPHEMERIS_TYPE":0,"CLASSIFICATION_TYPE":"U","NORAD_CAT_ID":58662,"ELEMENT_SET_NO":999,"REV_AT_EPOCH":12234,"BSTAR":0.00040063782,"MEAN_MOTION_DOT":0.00012722,"MEAN_MOTION_DDOT":0},{"OBJECT_NAME":"STARLINK-34395","OBJECT_ID":"2025-139E","EPOCH":"2026-03-09T10:38:24.266688","MEAN_MOTION":15.3021562,"ECCENTRICITY":0.00012794,"INCLINATION":53.1579,"RA_OF_ASC_NODE":128.3788,"ARG_OF_PERICENTER":82.1389,"MEAN_ANOMALY":277.9757,"EPHEMERIS_TYPE":0,"CLASSIFICATION_TYPE":"U","NORAD_CAT_ID":64668,"ELEMENT_SET_NO":999,"REV_AT_EPOCH":4024,"BSTAR":0.0011005667,"MEAN_MOTION_DOT":0.00032394,"MEAN_MOTION_DDOT":0}]
